NORAD_CAT_ID,OBJECT_NAME,OBJECT_TYPE,EPOCH,MEAN_MOTION,ECCENTRICITY,INCLINATION,RA_OF_ASC_NODE,ARG_OF_PERICENTER,MEAN_ANOMALY,BSTAR,MEAN_MOTION_DOT,MEAN_MOTION_DDOT,TLE_LINE0,TLE_LINE1,TLE_LINE2,SEMIMAJOR_AXIS,PERIOD,APOGEE,PERIGEE,DECAYED
54789.0,STARLINK-5446,PAYLOAD,2024-05-23 04:36:58,15.08832149,0.0001201,53.2169,76.5256,96.6616,263.4513,6.5533e-05,7.55e-06,0.0,0 STARLINK-5446,1 54789U 22175AH  24144.19234078  .00000755  00000-0  65533-4 0  9992,2 54789  53.2169  76.5256 0001201  96.6616 263.4513 15.08832149 79225,6917.904,95.438,540.6,538.939,0.0
54789.0,STARLINK-5446,PAYLOAD,2024-05-24 04:27:46,15.08832891,0.0001421,53.2186,72.0656,103.4211,256.694,4.687e-05,4.58e-06,0.0,0 STARLINK-5446,1 54789U 22175AH  24145.18594991  .00000458  00000-0  46870-4 0  9998,2 54789  53.2186  72.0656 0001421 103.4211 256.6940 15.08832891 81530,6917.902,95.438,540.75,538.784,0.0
54789.0,STARLINK-5446,PAYLOAD,2024-05-24 18:46:13,15.08841621,0.0001393,53.2185,69.3897,94.5565,265.5586,0.00012161,1.648e-05,0.0,0 STARLINK-5446,1 54789U 22175AH  24145.78210441  .00001648  00000-0  12161-3 0  9996,2 54789  53.2185  69.3897 0001393  94.5565 265.5586 15.08841621 79460,6917.875,95.437,540.704,538.777,0.0
54789.0,STARLINK-5446,PAYLOAD,2024-05-25 01:07:45,15.08857412,0.0001358,53.2174,68.2047,89.6325,270.4822,0.00053862,8.299e-05,0.0,0 STARLINK-5446,1 54789U 22175AH  24146.04705725  .00008299  00000-0  53862-3 0  9992,2 54789  53.2174  68.2047 0001358  89.6325 270.4822 15.08857412 79501,6917.827,95.436,540.632,538.753,0.0
54789.0,STARLINK-5446,PAYLOAD,2024-05-25 12:15:26,15.0886542,0.0001479,53.2181,66.1246,88.3389,271.7773,0.00040557,6.177e-05,0.0,0 STARLINK-5446,1 54789U 22175AH  24146.51072005  .00006177  00000-0  40557-3 0  9992,2 54789  53.2181  66.1246 0001479  88.3389 271.7773 15.08865420 79571,6917.803,95.436,540.691,538.645,0.0
54789.0,STARLINK-5446,PAYLOAD,2024-05-25 18:36:59,15.08864219,0.0002703,53.2171,64.9375,77.4915,282.638,0.00028101,4.19e-05,0.0,0 STARLINK-5446,1 54789U 22175AH  24146.77569195  .00004190  00000-0  28101-3 0  9995,2 54789  53.2171  64.9375 0002703  77.4915 282.6380 15.08864219 79619,6917.806,95.436,541.541,537.801,0.0
54789.0,STARLINK-5446,PAYLOAD,2024-05-26 00:58:32,15.08846785,0.0001223,53.2178,63.745,102.3618,257.7511,8.1536e-05,1.01e-05,0.0,0 STARLINK-5446,1 54789U 22175AH  24147.04065459  .00001010  00000-0  81536-4 0  9990,2 54789  53.2178  63.7450 0001223 102.3618 257.7511 15.08846785 79652,6917.86,95.437,540.571,538.879,0.0
54789.0,STARLINK-5446,PAYLOAD,2024-05-26 21:38:32,15.08845696,0.0001338,53.2174,59.8784,104.8032,255.3109,-0.00016995,-2.992e-05,0.0,0 STARLINK-5446,1 54789U 22175AH  24147.90176878 -.00002992  00000-0 -16995-3 0  9991,2 54789  53.2174  59.8784 0001338 104.8032 255.3109 15.08845696 81940,6917.863,95.437,540.654,538.802,0.0
54789.0,STARLINK-5446,PAYLOAD,2024-05-27 00:49:19,15.08846253,0.0001256,53.2175,59.2833,101.7707,258.3426,-0.00018348,-3.207e-05,0.0,0 STARLINK-5446,1 54789U 22175AH  24148.03425074 -.00003207  00000-0 -18348-3 0  9995,2 54789  53.2175  59.2833 0001256 101.7707 258.3426 15.08846253 81961,6917.861,95.437,540.595,538.857,0.0
54789.0,STARLINK-5446,PAYLOAD,2024-05-27 18:18:34,15.08834472,0.000109,53.2173,56.0121,97.9352,262.1764,3.1411e-05,2.12e-06,0.0,0 STARLINK-5446,1 54789U 22175AH  24148.76289601  .00000212  00000-0  31411-4 0  9997,2 54789  53.2173  56.0121 0001090  97.9352 262.1764 15.08834472 79912,6917.897,95.438,540.516,539.008,0.0
54789.0,STARLINK-5446,PAYLOAD,2024-05-27 21:29:20,15.08833218,0.0001078,53.218,55.4169,100.8093,259.3021,4.0393e-05,3.55e-06,0.0,0 STARLINK-5446,1 54789U 22175AH  24148.89537846  .00000355  00000-0  40393-4 0  9995,2 54789  53.2180  55.4169 0001078 100.8093 259.3021 15.08833218 82091,6917.901,95.438,540.512,539.02,0.0
54789.0,STARLINK-5446,PAYLOAD,2024-05-28 10:12:25,15.08833866,0.0001025,53.2181,53.037,98.4418,261.669,4.6724e-05,4.56e-06,0.0,0 STARLINK-5446,1 54789U 22175AH  24149.42529866  .00000456  00000-0  46724-4 0  9994,2 54789  53.2181  53.0370 0001025  98.4418 261.6690 15.08833866 82171,6917.899,95.438,540.473,539.055,0.0
54789.0,STARLINK-5446,PAYLOAD,2024-05-28 21:20:07,15.08832348,0.000102,53.2179,50.956,89.0094,271.1015,8.0822e-05,9.98e-06,0.0,0 STARLINK-5446,1 54789U 22175AH  24149.88898070  .00000998  00000-0  80822-4 0  9998,2 54789  53.2179  50.9560 0001020  89.0094 271.1015 15.08832348 82245,6917.904,95.438,540.474,539.063,0.0
54789.0,STARLINK-5446,PAYLOAD,2024-05-28 22:55:31,15.08833288,0.0001034,53.2177,50.6586,88.7615,271.3496,8.6918e-05,1.096e-05,0.0,0 STARLINK-5446,1 54789U 22175AH  24149.95522023  .00001096  00000-0  86918-4 0  9990,2 54789  53.2177  50.6586 0001034  88.7615 271.3496 15.08833288 80098,6917.901,95.438,540.481,539.051,0.0
54789.0,STARLINK-5446,PAYLOAD,2024-05-29 22:46:18,15.08837457,0.0001074,53.2181,46.1982,90.1031,270.0084,0.00010948,1.455e-05,0.0,0 STARLINK-5446,1 54789U 22175AH  24150.94882151  .00001455  00000-0  10948-3 0  9990,2 54789  53.2181  46.1982 0001074  90.1031 270.0084 15.08837457 82404,6917.888,95.438,540.496,539.01,0.0
54789.0,STARLINK-5446,PAYLOAD,2024-05-30 03:32:27,15.08840713,0.0001117,53.2184,45.3065,93.6787,266.4333,0.00013439,1.852e-05,0.0,0 STARLINK-5446,1 54789U 22175AH  24151.14753944  .00001852  00000-0  13439-3 0  9999,2 54789  53.2184  45.3065 0001117  93.6787 266.4333 15.08840713 80272,6917.878,95.438,540.516,538.97,0.0
54789.0,STARLINK-5446,PAYLOAD,2024-05-30 21:01:42,15.08841924,0.0001224,53.219,42.0353,93.5865,266.5267,0.00010512,1.386e-05,0.0,0 STARLINK-5446,1 54789U 22175AH  24151.87618090  .00001386  00000-0  10512-3 0  9992,2 54789  53.2190  42.0353 0001224  93.5865 266.5267 15.08841924 82542,6917.875,95.437,540.586,538.893,0.0
54789.0,STARLINK-5446,PAYLOAD,2024-05-31 01:47:51,15.08843945,0.0001247,53.2191,41.1432,89.6296,270.4839,0.00011806,1.592e-05,0.0,0 STARLINK-5446,1 54789U 22175AH  24152.07489958  .00001592  00000-0  11806-3 0  9990,2 54789  53.2191  41.1432 0001247  89.6296 270.4839 15.08843945 82577,6917.868,95.437,540.596,538.871,0.0
54789.0,STARLINK-5446,PAYLOAD,2024-05-31 16:06:19,15.08845551,0.0001203,53.2189,38.4675,90.5299,269.5831,8.0337e-05,9.91e-06,0.0,0 STARLINK-5446,1 54789U 22175AH  24152.67105905  .00000991  00000-0  80337-4 0  9991,2 54789  53.2189  38.4675 0001203  90.5299 269.5831 15.08845551 80505,6917.863,95.437,540.561,538.896,0.0
54789.0,STARLINK-5446,PAYLOAD,2024-05-31 22:27:52,15.08842625,0.0001382,53.2195,37.2778,85.9454,274.1696,4.5982e-05,4.44e-06,0.0,0 STARLINK-5446,1 54789U 22175AH  24152.93602189  .00000444  00000-0  45982-4 0  9996,2 54789  53.2195  37.2778 0001382  85.9454 274.1696 15.08842625 82706,6917.872,95.437,540.693,538.781,0.0
54789.0,STARLINK-5446,PAYLOAD,2024-06-01 01:38:38,15.08841385,0.0001333,53.2192,36.6834,87.0428,273.0717,3.1709e-05,2.17e-06,0.0,0 STARLINK-5446,1 54789U 22175AH  24153.06850284  .00000217  00000-0  31709-4 0  9992,2 54789  53.2192  36.6834 0001333  87.0428 273.0717 15.08841385 80565,6917.876,95.437,540.663,538.819,0.0
54789.0,STARLINK-5446,PAYLOAD,2024-06-01 09:35:33,15.08848348,0.0001221,53.2191,35.1969,86.4126,273.7006,7.8877e-05,9.68e-06,0.0,0 STARLINK-5446,1 54789U 22175AH  24153.39969611  .00000968  00000-0  78877-4 0  9993,2 54789  53.2191  35.1969 0001221  86.4126 273.7006 15.08848348 80611,6917.855,95.437,540.565,538.875,0.0
54789.0,STARLINK-5446,PAYLOAD,2024-06-01 20:43:16,15.08839229,0.0001172,53.2193,33.1159,101.932,258.1804,0.00010875,1.443e-05,0.0,0 STARLINK-5446,1 54789U 22175AH  24153.86338087  .00001443  00000-0  10875-3 0  9994,2 54789  53.2193  33.1159 0001172 101.9320 258.1804 15.08839229 80684,6917.883,95.438,540.559,538.937,0.0
54789.0,STARLINK-5446,PAYLOAD,2024-06-02 09:26:20,15.088522,0.0001373,53.2195,30.737,87.6958,272.4192,2.9263e-05,1.78e-06,0.0,0 STARLINK-5446,1 54789U 22175AH  24154.39329414  .00000178  00000-0  29263-4 0  9993,2 54789  53.2195  30.7370 0001373  87.6958 272.4192 15.08852200 80766,6917.843,95.437,540.658,538.758,0.0
54789.0,STARLINK-5446,PAYLOAD,2024-06-02 22:09:26,15.08835475,0.000181,53.2216,28.3595,92.7941,267.3259,0.00013144,1.804e-05,0.0,0 STARLINK-5446,1 54789U 22175AH  24154.92322549  .00001804  00000-0  13144-3 0  9991,2 54789  53.2216  28.3595 0001810  92.7941 267.3259 15.08835475 83009,6917.894,95.438,541.011,538.507,0.0
54789.0,STARLINK-5446,PAYLOAD,2024-06-03 01:20:12,15.08839167,0.000165,53.2212,27.7638,93.1465,266.9716,6.6275e-05,7.67e-06,0.0,0 STARLINK-5446,1 54789U 22175AH  24155.05570422  .00000767  00000-0  66275-4 0  9992,2 54789  53.2212  27.7638 0001650  93.1465 266.9716 15.08839167 80860,6917.883,95.438,540.889,538.606,0.0
54789.0,STARLINK-5446,PAYLOAD,2024-06-03 22:00:13,15.08844326,0.0001378,53.218,23.899,88.1449,271.9701,0.00016624,2.359e-05,0.0,0 STARLINK-5446,1 54789U 22175AH  24155.91681905  .00002359  00000-0  16624-3 0  9997,2 54789  53.2180  23.8990 0001378  88.1449 271.9701 15.08844326 83153,6917.867,95.437,540.685,538.779,0.0
54789.0,STARLINK-5446,PAYLOAD,2024-06-04 01:10:59,15.08848051,0.0001495,53.2199,23.305,90.2366,269.8797,0.00015319,2.151e-05,0.0,0 STARLINK-5446,1 54789U 22175AH  24156.04929712  .00002151  00000-0  15319-3 0  9993,2 54789  53.2199  23.3050 0001495  90.2366 269.8797 15.08848051 81010,6917.856,95.437,540.755,538.687,0.0
54789.0,STARLINK-5446,PAYLOAD,2024-06-04 21:51:00,15.08843157,0.0001789,53.2224,19.4355,95.822,264.2976,9.4972e-05,1.224e-05,0.0,0 STARLINK-5446,1 54789U 22175AH  24156.91042105  .00001224  00000-0  94972-4 0  9994,2 54789  53.2224  19.4355 0001789  95.8220 264.2976 15.08843157 83303,6917.871,95.437,540.973,538.498,0.0
54789.0,STARLINK-5446,PAYLOAD,2024-06-05 13:44:52,15.08836425,0.0001627,53.2205,16.463,88.064,272.0538,-4.795e-05,-1.051e-05,0.0,0 STARLINK-5446,1 54789U 22175AH  24157.57282408 -.00001051  00000-0 -47950-4 0  9993,2 54789  53.2205  16.4630 0001627  88.0640 272.0538 15.08836425 83408,6917.891,95.438,540.882,538.631,0.0
